{
    "links": {
        "self": "http://www.neowsapp.com/rest/v1/neo/3986842?api_key=iIulBulltgU6a56xZRHN4H3l9WmuAYTsLGpBGhQ2"
    },
    "id": "3986842",
    "neo_reference_id": "3986842",
    "name": "(2020 BN3)",
    "designation": "2020 BN3",
    "nasa_jpl_url": "http://ssd.jpl.nasa.gov/sbdb.cgi?sstr=3986842",
    "absolute_magnitude_h": 25.302,
    "estimated_diameter": {
        "kilometers": {
            "estimated_diameter_min": 0.0231288999,
            "estimated_diameter_max": 0.0517177924
        },
        "meters": {
            "estimated_diameter_min": 23.1288999038,
            "estimated_diameter_max": 51.7177924297
        },
        "miles": {
            "estimated_diameter_min": 0.0143716277,
            "estimated_diameter_max": 0.0321359364
        },
        "feet": {
            "estimated_diameter_min": 75.8822199604,
            "estimated_diameter_max": 169.677802115
        }
    },
    "is_potentially_hazardous_asteroid": false,
    "close_approach_data": [
        {
            "close_approach_date": "1905-10-24",
            "close_approach_date_full": "1905-Oct-24 06:41",
            "epoch_date_close_approach": -2025623940000,
            "relative_velocity": {
                "kilometers_per_second": "29.5500309733",
                "kilometers_per_hour": "106380.1115040337",
                "miles_per_hour": "66100.4642842703"
            },
            "miss_distance": {
                "astronomical": "0.0227378017",
                "lunar": "8.8450048613",
                "kilometers": "3401526.702802379",
                "miles": "2113610.6836916702"
            },
            "orbiting_body": "Venus"
        },
        {
            "close_approach_date": "1953-01-30",
            "close_approach_date_full": "1953-Jan-30 10:42",
            "epoch_date_close_approach": -533913480000,
            "relative_velocity": {
                "kilometers_per_second": "26.0314410996",
                "kilometers_per_hour": "93713.1879586547",
                "miles_per_hour": "58229.7305957541"
            },
            "miss_distance": {
                "astronomical": "0.1174279933",
                "lunar": "45.6794893937",
                "kilometers": "17566977.676054271",
                "miles": "10915613.7641640998"
            },
            "orbiting_body": "Earth"
        },
        {
            "close_approach_date": "1957-01-12",
            "close_approach_date_full": "1957-Jan-12 09:10",
            "epoch_date_close_approach": -409243800000,
            "relative_velocity": {
                "kilometers_per_second": "37.6566930908",
                "kilometers_per_hour": "135564.0951267616",
                "miles_per_hour": "84234.2567747369"
            },
            "miss_distance": {
                "astronomical": "0.2677687196",
                "lunar": "104.1620319244",
                "kilometers": "40057630.104787252",
                "miles": "24890657.1520059976"
            },
            "orbiting_body": "Earth"
        },
        {
            "close_approach_date": "2020-01-27",
            "close_approach_date_full": "2020-Jan-27 04:52",
            "epoch_date_close_approach": 1580100720000,
            "relative_velocity": {
                "kilometers_per_second": "28.8974392898",
                "kilometers_per_hour": "104030.7814434067",
                "miles_per_hour": "64640.6819474324"
            },
            "miss_distance": {
                "astronomical": "0.0175481882",
                "lunar": "6.8262452098",
                "kilometers": "2625171.577079134",
                "miles": "1631205.9779706892"
            },
            "orbiting_body": "Earth"
        }
    ],
    "orbital_data": {
        "orbit_id": "4",
        "orbit_determination_date": "2020-01-27 05:38:16",
        "first_observation_date": "2020-01-21",
        "last_observation_date": "2020-01-26",
        "data_arc_in_days": 5,
        "observations_used": 54,
        "orbit_uncertainty": "8",
        "minimum_orbit_intersection": ".000807898",
        "jupiter_tisserand_invariant": "2.807",
        "epoch_osculation": "2458871.5",
        "eccentricity": ".847157566025095",
        "semi_major_axis": "2.495787626661331",
        "inclination": "11.19820199179126",
        "ascending_node_longitude": "125.3628340143282",
        "orbital_period": "1440.15709326223",
        "perihelion_distance": ".3814622555433695",
        "perihelion_argument": "109.8452766072792",
        "aphelion_distance": "4.610112997779293",
        "perihelion_time": "2458917.629727746169",
        "mean_anomaly": "348.4688260285525",
        "mean_motion": ".2499727298391674",
        "equinox": "J2000",
        "orbit_class": {
            "orbit_class_type": "APO",
            "orbit_class_description": "Near-Earth asteroid orbits which cross the Earth’s orbit similar to that of 1862 Apollo",
            "orbit_class_range": "a (semi-major axis) > 1.0 AU; q (perihelion) < 1.017 AU"
        }
    },
    "is_sentry_object": false
}